STARLINK-36715          
1 67716U 26025Z   26051.75002314 -.01701667  80321-3 -53048-2 0  9997
2 67716  97.2704 162.4999 0001327  80.8294 293.1371 15.91647832  3186
STARLINK-36385          
1 67717U 26025AA  26051.75002314 -.01716090  80825-3 -56140-2 0  9999
2 67717  97.2705 162.4895 0001391  68.4800 280.6091 15.90701359  3183
CZ-2F DEB               
1 67718U 26024E   26051.47055795  .00186932  00000+0  36814-2 0  9991
2 67718  50.3133 102.8711 0256328 212.2894 146.2150 15.17963712  2014
CZ-2F DEB               
1 67719U 26024F   26051.63858811  .00146567  00000+0  37174-2 0  9990
2 67719  49.7900 103.6542 0330131 203.1467 155.4308 14.98290204  1686
CZ-2F DEB               
1 67720U 26024G   26051.59582862  .00148408  00000+0  38649-2 0  9991
2 67720  49.8292 104.1296 0340854 199.4666 159.2990 14.95609409  1997
STARLINK-36746          
1 67733U 26026N   26050.66668981 -.01616295  78657-3 -34510-2 0  9998
2 67733  97.2739 104.3113 0001254  83.8379 297.8192 15.98739130  2419
STARLINK-36749          
1 67734U 26026P   26050.66668981 -.01612323  78461-3 -34065-2 0  9995
2 67734  97.2738 104.3125 0001248  89.4627 295.3181 15.98927592  2415
STARLINK-36691          
1 67735U 26026Q   26050.66668981 -.01591595  77033-3 -32673-2 0  9990
2 67735  97.2734 104.3160 0001288  80.4194 312.5836 15.99439141  2558
STARLINK-36317          
1 67736U 26026R   26050.66668981 -.01600782  77646-3 -33325-2 0  9995
2 67736  97.2733 104.3138 0001305  80.5214 308.5035 15.99190319  2419
STARLINK-36330          
1 67737U 26026S   26050.66668981 -.01581379  76249-3 -32178-2 0  9999
2 67737  97.2730 104.3169 0001272  74.7007 320.9843 15.99595065  2411
STARLINK-36327          
1 67738U 26026T   26050.66668981 -.01577144  76046-3 -31719-2 0  9990
2 67738  97.2729 104.3184 0001340  73.1637 325.8563 15.99801899  2413
STARLINK-36329          
1 67739U 26026U   26050.66668981 -.01536166  73406-3 -28851-2 0  9990
2 67739  97.2717 104.3263 0001220  75.7674 342.7608 16.01002856  2413
