CCSDS_OMM_VERS = 2.0
CREATION_DATE  = 
ORIGINATOR     = 

OBJECT_NAME    = STARLINK-36715
OBJECT_ID      = 2026-025Z
CENTER_NAME    = EARTH
REF_FRAME      = TEME
TIME_SYSTEM    = UTC
MEAN_ELEMENT_THEORY = SGP/SGP4

EPOCH          = 2026-02-20T18:00:01.999296
MEAN_MOTION    = 15.91647832
ECCENTRICITY   = .0001327
INCLINATION    = 97.2704
RA_OF_ASC_NODE = 162.4999
ARG_OF_PERICENTER = 80.8294
MEAN_ANOMALY   = 293.1371

EPHEMERIS_TYPE = 0
CLASSIFICATION_TYPE = U
NORAD_CAT_ID   = 67716
ELEMENT_SET_NO = 999
REV_AT_EPOCH   = 318
BSTAR          = -.53048E-2
MEAN_MOTION_DOT = -.1701667E-1
MEAN_MOTION_DDOT = .80321E-3

CCSDS_OMM_VERS = 2.0
CREATION_DATE  = 
ORIGINATOR     = 

OBJECT_NAME    = STARLINK-36385
OBJECT_ID      = 2026-025AA
CENTER_NAME    = EARTH
REF_FRAME      = TEME
TIME_SYSTEM    = UTC
MEAN_ELEMENT_THEORY = SGP/SGP4

EPOCH          = 2026-02-20T18:00:01.999296
MEAN_MOTION    = 15.90701359
ECCENTRICITY   = .0001391
INCLINATION    = 97.2705
RA_OF_ASC_NODE = 162.4895
ARG_OF_PERICENTER = 68.4800
MEAN_ANOMALY   = 280.6091

EPHEMERIS_TYPE = 0
CLASSIFICATION_TYPE = U
NORAD_CAT_ID   = 67717
ELEMENT_SET_NO = 999
REV_AT_EPOCH   = 318
BSTAR          = -.5614E-2
MEAN_MOTION_DOT = -.171609E-1
MEAN_MOTION_DDOT = .80825E-3

CCSDS_OMM_VERS = 2.0
CREATION_DATE  = 
ORIGINATOR     = 

OBJECT_NAME    = CZ-2F DEB
OBJECT_ID      = 2026-024E
CENTER_NAME    = EARTH
REF_FRAME      = TEME
TIME_SYSTEM    = UTC
MEAN_ELEMENT_THEORY = SGP/SGP4

EPOCH          = 2026-02-20T11:17:36.206880
MEAN_MOTION    = 15.17963712
ECCENTRICITY   = .0256328
INCLINATION    = 50.3133
RA_OF_ASC_NODE = 102.8711
ARG_OF_PERICENTER = 212.2894
MEAN_ANOMALY   = 146.2150

EPHEMERIS_TYPE = 0
CLASSIFICATION_TYPE = U
NORAD_CAT_ID   = 67718
ELEMENT_SET_NO = 999
REV_AT_EPOCH   = 201
BSTAR          = .36814E-2
MEAN_MOTION_DOT = .186932E-2
MEAN_MOTION_DDOT = 0

CCSDS_OMM_VERS = 2.0
CREATION_DATE  = 
ORIGINATOR     = 

OBJECT_NAME    = CZ-2F DEB
OBJECT_ID      = 2026-024F
CENTER_NAME    = EARTH
REF_FRAME      = TEME
TIME_SYSTEM    = UTC
MEAN_ELEMENT_THEORY = SGP/SGP4

EPOCH          = 2026-02-20T15:19:34.012704
MEAN_MOTION    = 14.98290204
ECCENTRICITY   = .0330131
INCLINATION    = 49.7900
RA_OF_ASC_NODE = 103.6542
ARG_OF_PERICENTER = 203.1467
MEAN_ANOMALY   = 155.4308

EPHEMERIS_TYPE = 0
CLASSIFICATION_TYPE = U
NORAD_CAT_ID   = 67719
ELEMENT_SET_NO = 999
REV_AT_EPOCH   = 168
BSTAR          = .37174E-2
MEAN_MOTION_DOT = .146567E-2
MEAN_MOTION_DDOT = 0

CCSDS_OMM_VERS = 2.0
CREATION_DATE  = 
ORIGINATOR     = 

OBJECT_NAME    = CZ-2F DEB
OBJECT_ID      = 2026-024G
CENTER_NAME    = EARTH
REF_FRAME      = TEME
TIME_SYSTEM    = UTC
MEAN_ELEMENT_THEORY = SGP/SGP4

EPOCH          = 2026-02-20T14:17:59.592768
MEAN_MOTION    = 14.95609409
ECCENTRICITY   = .0340854
INCLINATION    = 49.8292
RA_OF_ASC_NODE = 104.1296
ARG_OF_PERICENTER = 199.4666
MEAN_ANOMALY   = 159.2990

EPHEMERIS_TYPE = 0
CLASSIFICATION_TYPE = U
NORAD_CAT_ID   = 67720
ELEMENT_SET_NO = 999
REV_AT_EPOCH   = 199
BSTAR          = .38649E-2
MEAN_MOTION_DOT = .148408E-2
MEAN_MOTION_DDOT = 0

CCSDS_OMM_VERS = 2.0
CREATION_DATE  = 
ORIGINATOR     = 

OBJECT_NAME    = STARLINK-36746
OBJECT_ID      = 2026-026N
CENTER_NAME    = EARTH
REF_FRAME      = TEME
TIME_SYSTEM    = UTC
MEAN_ELEMENT_THEORY = SGP/SGP4

EPOCH          = 2026-02-19T16:00:01.999584
MEAN_MOTION    = 15.98739130
ECCENTRICITY   = .0001254
INCLINATION    = 97.2739
RA_OF_ASC_NODE = 104.3113
ARG_OF_PERICENTER = 83.8379
MEAN_ANOMALY   = 297.8192

EPHEMERIS_TYPE = 0
CLASSIFICATION_TYPE = U
NORAD_CAT_ID   = 67733
ELEMENT_SET_NO = 999
REV_AT_EPOCH   = 241
BSTAR          = -.3451E-2
MEAN_MOTION_DOT = -.1616295E-1
MEAN_MOTION_DDOT = .78657E-3

CCSDS_OMM_VERS = 2.0
CREATION_DATE  = 
ORIGINATOR     = 

OBJECT_NAME    = STARLINK-36749
OBJECT_ID      = 2026-026P
CENTER_NAME    = EARTH
REF_FRAME      = TEME
TIME_SYSTEM    = UTC
MEAN_ELEMENT_THEORY = SGP/SGP4

EPOCH          = 2026-02-19T16:00:01.999584
MEAN_MOTION    = 15.98927592
ECCENTRICITY   = .0001248
INCLINATION    = 97.2738
RA_OF_ASC_NODE = 104.3125
ARG_OF_PERICENTER = 89.4627
MEAN_ANOMALY   = 295.3181

EPHEMERIS_TYPE = 0
CLASSIFICATION_TYPE = U
NORAD_CAT_ID   = 67734
ELEMENT_SET_NO = 999
REV_AT_EPOCH   = 241
BSTAR          = -.34065E-2
MEAN_MOTION_DOT = -.1612323E-1
MEAN_MOTION_DDOT = .78461E-3

CCSDS_OMM_VERS = 2.0
CREATION_DATE  = 
ORIGINATOR     = 

OBJECT_NAME    = STARLINK-36691
OBJECT_ID      = 2026-026Q
CENTER_NAME    = EARTH
REF_FRAME      = TEME
TIME_SYSTEM    = UTC
MEAN_ELEMENT_THEORY = SGP/SGP4

EPOCH          = 2026-02-19T16:00:01.999584
MEAN_MOTION    = 15.99439141
ECCENTRICITY   = .0001288
INCLINATION    = 97.2734
RA_OF_ASC_NODE = 104.3160
ARG_OF_PERICENTER = 80.4194
MEAN_ANOMALY   = 312.5836

EPHEMERIS_TYPE = 0
CLASSIFICATION_TYPE = U
NORAD_CAT_ID   = 67735
ELEMENT_SET_NO = 999
REV_AT_EPOCH   = 255
BSTAR          = -.32673E-2
MEAN_MOTION_DOT = -.1591595E-1
MEAN_MOTION_DDOT = .77033E-3

CCSDS_OMM_VERS = 2.0
CREATION_DATE  = 
ORIGINATOR     = 

OBJECT_NAME    = STARLINK-36317
OBJECT_ID      = 2026-026R
CENTER_NAME    = EARTH
REF_FRAME      = TEME
TIME_SYSTEM    = UTC
MEAN_ELEMENT_THEORY = SGP/SGP4

EPOCH          = 2026-02-19T16:00:01.999584
MEAN_MOTION    = 15.99190319
ECCENTRICITY   = .0001305
INCLINATION    = 97.2733
RA_OF_ASC_NODE = 104.3138
ARG_OF_PERICENTER = 80.5214
MEAN_ANOMALY   = 308.5035

EPHEMERIS_TYPE = 0
CLASSIFICATION_TYPE = U
NORAD_CAT_ID   = 67736
ELEMENT_SET_NO = 999
REV_AT_EPOCH   = 241
BSTAR          = -.33325E-2
MEAN_MOTION_DOT = -.1600782E-1
MEAN_MOTION_DDOT = .77646E-3

CCSDS_OMM_VERS = 2.0
CREATION_DATE  = 
ORIGINATOR     = 

OBJECT_NAME    = STARLINK-36330
OBJECT_ID      = 2026-026S
CENTER_NAME    = EARTH
REF_FRAME      = TEME
TIME_SYSTEM    = UTC
MEAN_ELEMENT_THEORY = SGP/SGP4

EPOCH          = 2026-02-19T16:00:01.999584
MEAN_MOTION    = 15.99595065
ECCENTRICITY   = .0001272
INCLINATION    = 97.2730
RA_OF_ASC_NODE = 104.3169
ARG_OF_PERICENTER = 74.7007
MEAN_ANOMALY   = 320.9843

EPHEMERIS_TYPE = 0
CLASSIFICATION_TYPE = U
NORAD_CAT_ID   = 67737
ELEMENT_SET_NO = 999
REV_AT_EPOCH   = 241
BSTAR          = -.32178E-2
MEAN_MOTION_DOT = -.1581379E-1
MEAN_MOTION_DDOT = .76249E-3

CCSDS_OMM_VERS = 2.0
CREATION_DATE  = 
ORIGINATOR     = 

OBJECT_NAME    = STARLINK-36327
OBJECT_ID      = 2026-026T
CENTER_NAME    = EARTH
REF_FRAME      = TEME
TIME_SYSTEM    = UTC
MEAN_ELEMENT_THEORY = SGP/SGP4

EPOCH          = 2026-02-19T16:00:01.999584
MEAN_MOTION    = 15.99801899
ECCENTRICITY   = .000134
INCLINATION    = 97.2729
RA_OF_ASC_NODE = 104.3184
ARG_OF_PERICENTER = 73.1637
MEAN_ANOMALY   = 325.8563

EPHEMERIS_TYPE = 0
CLASSIFICATION_TYPE = U
NORAD_CAT_ID   = 67738
ELEMENT_SET_NO = 999
REV_AT_EPOCH   = 241
BSTAR          = -.31719E-2
MEAN_MOTION_DOT = -.1577144E-1
MEAN_MOTION_DDOT = .76046E-3

CCSDS_OMM_VERS = 2.0
CREATION_DATE  = 
ORIGINATOR     = 

OBJECT_NAME    = STARLINK-36329
OBJECT_ID      = 2026-026U
CENTER_NAME    = EARTH
REF_FRAME      = TEME
TIME_SYSTEM    = UTC
MEAN_ELEMENT_THEORY = SGP/SGP4

EPOCH          = 2026-02-19T16:00:01.999584
MEAN_MOTION    = 16.01002856
ECCENTRICITY   = .000122
INCLINATION    = 97.2717
RA_OF_ASC_NODE = 104.3263
ARG_OF_PERICENTER = 75.7674
MEAN_ANOMALY   = 342.7608

EPHEMERIS_TYPE = 0
CLASSIFICATION_TYPE = U
NORAD_CAT_ID   = 67739
ELEMENT_SET_NO = 999
REV_AT_EPOCH   = 241
BSTAR          = -.28851E-2
MEAN_MOTION_DOT = -.1536166E-1
MEAN_MOTION_DDOT = .73406E-3

